{
  "type": "FeatureCollection",
  "features": [
    {
      "type": "Feature",
      "properties": {
        "norad_id": 44333,
        "name": "AT&T T-16",
        "group": "intelsat",
        "lat": 0.0028247219217958186,
        "lon": -150.25259000912416,
        "alt_km": 35785.04430952956,
        "timestamp": "2025-12-21T14:40:47.578719+00:00",
        "meta_object_name": "AT&T T-16",
        "meta_object_id": "2019-034A",
        "meta_epoch": "2025-12-20T14:27:46.526976",
        "meta_mean_motion": 1.00263761,
        "meta_eccentricity": 0.0001552,
        "meta_inclination": 0.019,
        "meta_ra_of_asc_node": 58.344,
        "meta_arg_of_pericenter": 92.0528,
        "meta_mean_anomaly": 55.1236,
        "meta_ephemeris_type": 0,
        "meta_classification_type": "U",
        "meta_norad_cat_id": 44333,
        "meta_element_set_no": 999,
        "meta_rev_at_epoch": 2384,
        "meta_bstar": 0,
        "meta_mean_motion_dot": -9.1e-07,
        "meta_mean_motion_ddot": 0,
        "tle_line1": "1 44333U 19034A   25354.60262184 -.00000091  00000+0  00000+0 0  9991",
        "tle_line2": "2 44333   0.0190  58.3440 0001552  92.0528  55.1236  1.00263761 23847"
      },
      "geometry": {
        "type": "Point",
        "coordinates": [
          -150.25259000912416,
          0.0028247219217958186
        ]
      }
    },
    {
      "type": "Feature",
      "properties": {
        "norad_id": 44476,
        "name": "INTELSAT 39 (IS-39)",
        "group": "intelsat",
        "lat": 0.013702651990232979,
        "lon": 12.552867244670942,
        "alt_km": 35788.73167227197,
        "timestamp": "2025-12-21T14:40:47.578731+00:00",
        "meta_object_name": "INTELSAT 39 (IS-39)",
        "meta_object_id": "2019-049B",
        "meta_epoch": "2025-12-21T04:55:56.650656",
        "meta_mean_motion": 1.00270671,
        "meta_eccentricity": 0.0001047,
        "meta_inclination": 0.017,
        "meta_ra_of_asc_node": 349.5592,
        "meta_arg_of_pericenter": 145.6659,
        "meta_mean_anomaly": 90.7353,
        "meta_ephemeris_type": 0,
        "meta_classification_type": "U",
        "meta_norad_cat_id": 44476,
        "meta_element_set_no": 999,
        "meta_rev_at_epoch": 2334,
        "meta_bstar": 0,
        "meta_mean_motion_dot": 5.6e-07,
        "meta_mean_motion_ddot": 0,
        "tle_line1": "1 44476U 19049B   25355.20551679  .00000056  00000+0  00000+0 0  9992",
        "tle_line2": "2 44476   0.0170 349.5592 0001047 145.6659  90.7353  1.00270671 23343"
      },
      "geometry": {
        "type": "Point",
        "coordinates": [
          12.552867244670942,
          0.013702651990232979
        ]
      }
    },
    {
      "type": "Feature",
      "properties": {
        "norad_id": 46114,
        "name": "GALAXY 30 (G-30)",
        "group": "intelsat",
        "lat": -0.009082711833832118,
        "lon": -174.3802097043188,
        "alt_km": 35784.965580723554,
        "timestamp": "2025-12-21T14:40:47.578742+00:00",
        "meta_object_name": "GALAXY 30 (G-30)",
        "meta_object_id": "2020-056C",
        "meta_epoch": "2025-12-21T00:37:13.930752",
        "meta_mean_motion": 1.00273357,
        "meta_eccentricity": 0.00020294,
        "meta_inclination": 0.0178,
        "meta_ra_of_asc_node": 349.0054,
        "meta_arg_of_pericenter": 282.3653,
        "meta_mean_anomaly": 62.8096,
        "meta_ephemeris_type": 0,
        "meta_classification_type": "U",
        "meta_norad_cat_id": 46114,
        "meta_element_set_no": 999,
        "meta_rev_at_epoch": 1950,
        "meta_bstar": 0,
        "meta_mean_motion_dot": 6e-07,
        "meta_mean_motion_ddot": 0,
        "tle_line1": "1 46114U 20056C   25355.02585568  .00000060  00000+0  00000+0 0  9992",
        "tle_line2": "2 46114   0.0178 349.0054 0002029 282.3653  62.8096  1.00273357 19505"
      },
      "geometry": {
        "type": "Point",
        "coordinates": [
          -174.3802097043188,
          -0.009082711833832118
        ]
      }
    },
    {
      "type": "Feature",
      "properties": {
        "norad_id": 54026,
        "name": "GALAXY 33 (G-33)",
        "group": "intelsat",
        "lat": 0.01899660331811375,
        "lon": 177.601511649681,
        "alt_km": 35786.44593083959,
        "timestamp": "2025-12-21T14:40:47.578754+00:00",
        "meta_object_name": "GALAXY 33 (G-33)",
        "meta_object_id": "2022-128A",
        "meta_epoch": "2025-12-21T06:12:12.296160",
        "meta_mean_motion": 1.00271485,
        "meta_eccentricity": 0.00015563,
        "meta_inclination": 0.0176,
        "meta_ra_of_asc_node": 49.3627,
        "meta_arg_of_pericenter": 220.9527,
        "meta_mean_anomaly": 139.8174,
        "meta_ephemeris_type": 0,
        "meta_classification_type": "U",
        "meta_norad_cat_id": 54026,
        "meta_element_set_no": 999,
        "meta_rev_at_epoch": 1195,
        "meta_bstar": 0,
        "meta_mean_motion_dot": 1.02e-06,
        "meta_mean_motion_ddot": 0,
        "tle_line1": "1 54026U 22128A   25355.25847565  .00000102  00000+0  00000+0 0  9995",
        "tle_line2": "2 54026   0.0176  49.3627 0001556 220.9527 139.8174  1.00271485 11955"
      },
      "geometry": {
        "type": "Point",
        "coordinates": [
          177.601511649681,
          0.01899660331811375
        ]
      }
    },
    {
      "type": "Feature",
      "properties": {
        "norad_id": 54027,
        "name": "GALAXY 34 (G-34)",
        "group": "intelsat",
        "lat": 0.008703098922430623,
        "lon": -178.35506429384253,
        "alt_km": 35786.30280566859,
        "timestamp": "2025-12-21T14:40:47.578766+00:00",
        "meta_object_name": "GALAXY 34 (G-34)",
        "meta_object_id": "2022-128B",
        "meta_epoch": "2025-12-21T07:10:10.723872",
        "meta_mean_motion": 1.00268136,
        "meta_eccentricity": 0.00017963,
        "meta_inclination": 0.0237,
        "meta_ra_of_asc_node": 17.2747,
        "meta_arg_of_pericenter": 248.4543,
        "meta_mean_anomaly": 162.9868,
        "meta_ephemeris_type": 0,
        "meta_classification_type": "U",
        "meta_norad_cat_id": 54027,
        "meta_element_set_no": 999,
        "meta_rev_at_epoch": 1212,
        "meta_bstar": 0,
        "meta_mean_motion_dot": 0,
        "meta_mean_motion_ddot": 0,
        "tle_line1": "1 54027U 22128B   25355.29873523  .00000000  00000+0  00000+0 0  9990",
        "tle_line2": "2 54027   0.0237  17.2747 0001796 248.4543 162.9868  1.00268136 12126"
      },
      "geometry": {
        "type": "Point",
        "coordinates": [
          -178.35506429384253,
          0.008703098922430623
        ]
      }
    },
    {
      "type": "Feature",
      "properties": {
        "norad_id": 54243,
        "name": "GALAXY 31 (G-31)",
        "group": "intelsat",
        "lat": 0.013935255058296087,
        "lon": -170.39800143676226,
        "alt_km": 35786.195396291645,
        "timestamp": "2025-12-21T14:40:47.578778+00:00",
        "meta_object_name": "GALAXY 31 (G-31)",
        "meta_object_id": "2022-153A",
        "meta_epoch": "2025-12-21T04:32:38.609664",
        "meta_mean_motion": 1.00271219,
        "meta_eccentricity": 0.0001379,
        "meta_inclination": 0.0225,
        "meta_ra_of_asc_node": 87.4466,
        "meta_arg_of_pericenter": 192.028,
        "meta_mean_anomaly": 117.6986,
        "meta_ephemeris_type": 0,
        "meta_classification_type": "U",
        "meta_norad_cat_id": 54243,
        "meta_element_set_no": 999,
        "meta_rev_at_epoch": 534,
        "meta_bstar": 0,
        "meta_mean_motion_dot": 3.6e-07,
        "meta_mean_motion_ddot": 0,
        "tle_line1": "1 54243U 22153A   25355.18933576  .00000036  00000+0  00000+0 0  9990",
        "tle_line2": "2 54243   0.0225  87.4466 0001379 192.0280 117.6986  1.00271219  5349"
      },
      "geometry": {
        "type": "Point",
        "coordinates": [
          -170.39800143676226,
          0.013935255058296087
        ]
      }
    },
    {
      "type": "Feature",
      "properties": {
        "norad_id": 54244,
        "name": "GALAXY 32 (G-32)",
        "group": "intelsat",
        "lat": -0.027537205921845807,
        "lon": -140.40246095184477,
        "alt_km": 35787.89267778798,
        "timestamp": "2025-12-21T14:40:47.578789+00:00",
        "meta_object_name": "GALAXY 32 (G-32)",
        "meta_object_id": "2022-153B",
        "meta_epoch": "2025-12-21T04:12:15.833664",
        "meta_mean_motion": 1.00270554,
        "meta_eccentricity": 0.00019489,
        "meta_inclination": 0.0108,
        "meta_ra_of_asc_node": 337.5471,
        "meta_arg_of_pericenter": 342.4382,
        "meta_mean_anomaly": 102.082,
        "meta_ephemeris_type": 0,
        "meta_classification_type": "U",
        "meta_norad_cat_id": 54244,
        "meta_element_set_no": 999,
        "meta_rev_at_epoch": 1135,
        "meta_bstar": 0,
        "meta_mean_motion_dot": -1.51e-06,
        "meta_mean_motion_ddot": 0,
        "tle_line1": "1 54244U 22153B   25355.17518326 -.00000151  00000+0  00000+0 0  9991",
        "tle_line2": "2 54244   0.0108 337.5471 0001948 342.4382 102.0820  1.00270554 11355"
      },
      "geometry": {
        "type": "Point",
        "coordinates": [
          -140.40246095184477,
          -0.027537205921845807
        ]
      }
    }
  ]
}